{"type": "FeatureCollection", "features": [ {"type": "Feature", "properties": {"norad_id": 29769, "name": "FENGYUN 1C DEB", "group": "fengyun-1c-debris", "lat": -72.81963456846795, "lon": 90.51680688528428, "alt_km": 918.8906865254785, "timestamp": "2025-12-27T17:24:57.676418+00:00", "meta": {"OBJECT_NAME": "FENGYUN 1C DEB", "OBJECT_ID": "1999-025BK", "EPOCH": "2025-12-26T14:35:45.563136", "MEAN_MOTION": 14.13597736, "ECCENTRICITY": 0.0093024, "INCLINATION": 99.1046, "RA_OF_ASC_NODE": 58.137, "ARG_OF_PERICENTER": 91.7686, "MEAN_ANOMALY": 269.4143, "EPHEMERIS_TYPE": 0, "CLASSIFICATION_TYPE": "U", "NORAD_CAT_ID": 29769, "ELEMENT_SET_NO": 999, "REV_AT_EPOCH": 96877, "BSTAR": 0.0013124, "MEAN_MOTION_DOT": 2.534e-05, "MEAN_MOTION_DDOT": 0}, "tle": {"line1": "1 29769U 99025BK  25360.60816624  .00002534  00000+0  13124-2 0  9993", "line2": "2 29769  99.1046  58.1370 0093024  91.7686 269.4143 14.13597736968775"}}, "geometry": {"type": "Point", "coordinates": [90.51680688528428, -72.81963456846795]}}, {"type": "Feature", "properties": {"norad_id": 29770, "name": "FENGYUN 1C DEB", "group": "fengyun-1c-debris", "lat": 64.64979548721101, "lon": 58.10703403089998, "alt_km": 862.2769479123845, "timestamp": "2025-12-27T17:24:57.676429+00:00", "meta": {"OBJECT_NAME": "FENGYUN 1C DEB", "OBJECT_ID": "1999-025BL", "EPOCH": "2025-12-27T12:06:32.211072", "MEAN_MOTION": 14.20207939, "ECCENTRICITY": 0.0064126, "INCLINATION": 98.8452, "RA_OF_ASC_NODE": 77.0742, "ARG_OF_PERICENTER": 229.1005, "MEAN_ANOMALY": 147.3777, "EPHEMERIS_TYPE": 0, "CLASSIFICATION_TYPE": "U", "NORAD_CAT_ID": 29770, "ELEMENT_SET_NO": 999, "REV_AT_EPOCH": 97296, "BSTAR": 0.0017517, "MEAN_MOTION_DOT": 3.775e-05, "MEAN_MOTION_DDOT": 0}, "tle": {"line1": "1 29770U 99025BL  25361.50453948  .00003775  00000+0  17517-2 0  9999", "line2": "2 29770  98.8452  77.0742 0064126 229.1005 147.3777 14.20207939972964"}}, "geometry": {"type": "Point", "coordinates": [58.10703403089998, 64.64979548721101]}}, {"type": "Feature", "properties": {"norad_id": 29772, "name": "FENGYUN 1C DEB", "group": "fengyun-1c-debris", "lat": 27.579738412101594, "lon": 34.18050222267691, "alt_km": 890.747533598651, "timestamp": "2025-12-27T17:24:57.676439+00:00", "meta": {"OBJECT_NAME": "FENGYUN 1C DEB", "OBJECT_ID": "1999-025BN", "EPOCH": "2025-12-26T13:34:08.565024", "MEAN_MOTION": 14.03258304, "ECCENTRICITY": 0.0136912, "INCLINATION": 98.3844, "RA_OF_ASC_NODE": 208.6925, "ARG_OF_PERICENTER": 251.5066, "MEAN_ANOMALY": 163.8512, "EPHEMERIS_TYPE": 0, "CLASSIFICATION_TYPE": "U", "NORAD_CAT_ID": 29772, "ELEMENT_SET_NO": 999, "REV_AT_EPOCH": 96449, "BSTAR": 0.0010924, "MEAN_MOTION_DOT": 1.811e-05, "MEAN_MOTION_DDOT": 0}, "tle": {"line1": "1 29772U 99025BN  25360.56537691  .00001811  00000+0  10924-2 0  9998", "line2": "2 29772  98.3844 208.6925 0136912 251.5066 163.8512 14.03258304964492"}}, "geometry": {"type": "Point", "coordinates": [34.18050222267691, 27.579738412101594]}}, {"type": "Feature", "properties": {"norad_id": 29773, "name": "FENGYUN 1C DEB", "group": "fengyun-1c-debris", "lat": 71.06445381284296, "lon": 128.27918015824858, "alt_km": 826.0689914512732, "timestamp": "2025-12-27T17:24:57.676450+00:00", "meta": {"OBJECT_NAME": "FENGYUN 1C DEB", "OBJECT_ID": "1999-025BP", "EPOCH": "2025-12-27T08:47:46.100256", "MEAN_MOTION": 14.27599038, "ECCENTRICITY": 0.0046558, "INCLINATION": 98.9881, "RA_OF_ASC_NODE": 155.3838, "ARG_OF_PERICENTER": 247.7934, "MEAN_ANOMALY": 140.7434, "EPHEMERIS_TYPE": 0, "CLASSIFICATION_TYPE": "U", "NORAD_CAT_ID": 29773, "ELEMENT_SET_NO": 999, "REV_AT_EPOCH": 98406, "BSTAR": 0.00046932, "MEAN_MOTION_DOT": 1.121e-05, "MEAN_MOTION_DDOT": 0}, "tle": {"line1": "1 29773U 99025BP  25361.36650579  .00001121  00000+0  46932-3 0  9992", "line2": "2 29773  98.9881 155.3838 0046558 247.7934 140.7434 14.27599038984068"}}, "geometry": {"type": "Point", "coordinates": [128.27918015824858, 71.06445381284296]}}, {"type": "Feature", "properties": {"norad_id": 29774, "name": "FENGYUN 1C DEB", "group": "fengyun-1c-debris", "lat": 39.746295592462786, "lon": 130.14523313945213, "alt_km": 793.4793443834114, "timestamp": "2025-12-27T17:24:57.676461+00:00", "meta": {"OBJECT_NAME": "FENGYUN 1C DEB", "OBJECT_ID": "1999-025BQ", "EPOCH": "2025-12-27T07:14:46.028832", "MEAN_MOTION": 14.22744815, "ECCENTRICITY": 0.005136, "INCLINATION": 99.0782, "RA_OF_ASC_NODE": 302.0682, "ARG_OF_PERICENTER": 82.3296, "MEAN_ANOMALY": 47.5678, "EPHEMERIS_TYPE": 0, "CLASSIFICATION_TYPE": "U", "NORAD_CAT_ID": 29774, "ELEMENT_SET_NO": 999, "REV_AT_EPOCH": 98282, "BSTAR": 0.00022369, "MEAN_MOTION_DOT": 4.61e-06, "MEAN_MOTION_DDOT": 0}, "tle": {"line1": "1 29774U 99025BQ  25361.30192163  .00000461  00000+0  22369-3 0  9991", "line2": "2 29774  99.0782 302.0682 0051360  82.3296  47.5678 14.22744815982826"}}, "geometry": {"type": "Point", "coordinates": [130.14523313945213, 39.746295592462786]}}, {"type": "Feature", "properties": {"norad_id": 29776, "name": "FENGYUN 1C DEB", "group": "fengyun-1c-debris", "lat": -59.04596778439157, "lon": 42.96083394961251, "alt_km": 869.0292592284959, "timestamp": "2025-12-27T17:24:57.676471+00:00", "meta": {"OBJECT_NAME": "FENGYUN 1C DEB", "OBJECT_ID": "1999-025BS", "EPOCH": "2025-12-27T07:46:12.254880", "MEAN_MOTION": 14.07783108, "ECCENTRICITY": 0.0023124, "INCLINATION": 98.7698, "RA_OF_ASC_NODE": 27.6562, "ARG_OF_PERICENTER": 228.305, "MEAN_ANOMALY": 195.5301, "EPHEMERIS_TYPE": 0, "CLASSIFICATION_TYPE": "U", "NORAD_CAT_ID": 29776, "ELEMENT_SET_NO": 999, "REV_AT_EPOCH": 97285, "BSTAR": 0.00017653, "MEAN_MOTION_DOT": 2.57e-06, "MEAN_MOTION_DDOT": 0}, "tle": {"line1": "1 29776U 99025BS  25361.32375295  .00000257  00000+0  17653-3 0  9997", "line2": "2 29776  98.7698  27.6562 0023124 228.3050 195.5301 14.07783108972854"}}, "geometry": {"type": "Point", "coordinates": [42.96083394961251, -59.04596778439157]}}, {"type": "Feature", "properties": {"norad_id": 29777, "name": "FENGYUN 1C DEB", "group": "fengyun-1c-debris", "lat": -41.9027650469007, "lon": -129.8323324224682, "alt_km": 886.6075531255174, "timestamp": "2025-12-27T17:24:57.676481+00:00", "meta": {"OBJECT_NAME": "FENGYUN 1C DEB", "OBJECT_ID": "1999-025BT", "EPOCH": "2025-12-27T09:32:04.256736", "MEAN_MOTION": 13.92110802, "ECCENTRICITY": 0.0093302, "INCLINATION": 99.2815, "RA_OF_ASC_NODE": 58.2769, "ARG_OF_PERICENTER": 170.1191, "MEAN_ANOMALY": 206.6237, "EPHEMERIS_TYPE": 0, "CLASSIFICATION_TYPE": "U", "NORAD_CAT_ID": 29777, "ELEMENT_SET_NO": 999, "REV_AT_EPOCH": 96245, "BSTAR": 0.00017601, "MEAN_MOTION_DOT": 1.88e-06, "MEAN_MOTION_DDOT": 0}, "tle": {"line1": "1 29777U 99025BT  25361.39727149  .00000188  00000+0  17601-3 0  9990", "line2": "2 29777  99.2815  58.2769 0093302 170.1191 206.6237 13.92110802962451"}}, "geometry": {"type": "Point", "coordinates": [-129.8323324224682, -41.9027650469007]}}, {"type": "Feature", "properties": {"norad_id": 29779, "name": "FENGYUN 1C DEB", "group": "fengyun-1c-debris", "lat": -69.57794239620725, "lon": 168.29960861988388, "alt_km": 884.1403372410186, "timestamp": "2025-12-27T17:24:57.676492+00:00", "meta": {"OBJECT_NAME": "FENGYUN 1C DEB", "OBJECT_ID": "1999-025BV", "EPOCH": "2025-12-27T11:08:20.414688", "MEAN_MOTION": 14.13455777, "ECCENTRICITY": 0.0064069, "INCLINATION": 98.6769, "RA_OF_ASC_NODE": 12.2589, "ARG_OF_PERICENTER": 122.5735, "MEAN_ANOMALY": 238.1647, "EPHEMERIS_TYPE": 0, "CLASSIFICATION_TYPE": "U", "NORAD_CAT_ID": 29779, "ELEMENT_SET_NO": 999, "REV_AT_EPOCH": 97620, "BSTAR": 0.00025016, "MEAN_MOTION_DOT": 4.38e-06, "MEAN_MOTION_DDOT": 0}, "tle": {"line1": "1 29779U 99025BV  25361.46412517  .00000438  00000+0  25016-3 0  9997", "line2": "2 29779  98.6769  12.2589 0064069 122.5735 238.1647 14.13455777976207"}}, "geometry": {"type": "Point", "coordinates": [168.29960861988388, -69.57794239620725]}}, {"type": "Feature", "properties": {"norad_id": 29780, "name": "FENGYUN 1C DEB", "group": "fengyun-1c-debris", "lat": 67.54336742792422, "lon": -99.89539342441542, "alt_km": 785.6949564216648, "timestamp": "2025-12-27T17:24:57.676503+00:00", "meta": {"OBJECT_NAME": "FENGYUN 1C DEB", "OBJECT_ID": "1999-025BW", "EPOCH": "2025-12-26T07:17:51.271296", "MEAN_MOTION": 14.211339, "ECCENTRICITY": 0.0042031, "INCLINATION": 99.278, "RA_OF_ASC_NODE": 281.9088, "ARG_OF_PERICENTER": 89.0919, "MEAN_ANOMALY": 271.5072, "EPHEMERIS_TYPE": 0, "CLASSIFICATION_TYPE": "U", "NORAD_CAT_ID": 29780, "ELEMENT_SET_NO": 999, "REV_AT_EPOCH": 97271, "BSTAR": 0.0017695, "MEAN_MOTION_DOT": 3.834e-05, "MEAN_MOTION_DDOT": 0}, "tle": {"line1": "1 29780U 99025BW  25360.30406564  .00003834  00000+0  17695-2 0  9992", "line2": "2 29780  99.2780 281.9088 0042031  89.0919 271.5072 14.21133900972719"}}, "geometry": {"type": "Point", "coordinates": [-99.89539342441542, 67.54336742792422]}}, {"type": "Feature", "properties": {"norad_id": 29781, "name": "FENGYUN 1C DEB", "group": "fengyun-1c-debris", "lat": -65.24316318700386, "lon": 155.8004000522691, "alt_km": 905.1819726689237, "timestamp": "2025-12-27T17:24:57.676513+00:00", "meta": {"OBJECT_NAME": "FENGYUN 1C DEB", "OBJECT_ID": "1999-025BX", "EPOCH": "2025-12-26T23:25:39.627840", "MEAN_MOTION": 14.05260391, "ECCENTRICITY": 0.0072443, "INCLINATION": 98.8108, "RA_OF_ASC_NODE": 354.7256, "ARG_OF_PERICENTER": 133.2661, "MEAN_ANOMALY": 283.0582, "EPHEMERIS_TYPE": 0, "CLASSIFICATION_TYPE": "U", "NORAD_CAT_ID": 29781, "ELEMENT_SET_NO": 999, "REV_AT_EPOCH": 96843, "BSTAR": 0.00062519, "MEAN_MOTION_DOT": 9.93e-06, "MEAN_MOTION_DDOT": 0}, "tle": {"line1": "1 29781U 99025BX  25360.97615310  .00000993  00000+0  62519-3 0  9996", "line2": "2 29781  98.8108 354.7256 0072443 133.2661 283.0582 14.05260391968436"}}, "geometry": {"type": "Point", "coordinates": [155.8004000522691, -65.24316318700386]}}]}